{"type": "FeatureCollection", "features": [ {"type": "Feature", "properties": {"norad_id": 38197, "name": "COSMOS 2251 DEB", "group": "cosmos-2251-debris", "lat": 44.87936020206122, "lon": 5.856943439994182, "alt_km": 731.6778105814274, "timestamp": "2025-12-16T17:51:11.330488+00:00", "meta": {"OBJECT_NAME": "COSMOS 2251 DEB", "OBJECT_ID": "1993-036BSM", "EPOCH": "2025-12-15T17:12:16.336800", "MEAN_MOTION": 14.74191742, "ECCENTRICITY": 0.01256793, "INCLINATION": 73.9374, "RA_OF_ASC_NODE": 351.2002, "ARG_OF_PERICENTER": 227.9167, "MEAN_ANOMALY": 131.1266, "EPHEMERIS_TYPE": 0, "CLASSIFICATION_TYPE": "U", "NORAD_CAT_ID": 38197, "ELEMENT_SET_NO": 999, "REV_AT_EPOCH": 85799, "BSTAR": 0.0020909891, "MEAN_MOTION_DOT": 0.00015677, "MEAN_MOTION_DDOT": 0}, "tle": {"line1": "1 38197U 93036BSM 25349.71685575  .00015677  00000+0  20910-2 0  9995", "line2": "2 38197  73.9374 351.2002 0125679 227.9167 131.1266 14.74191742857998"}}, "geometry": {"type": "Point", "coordinates": [5.856943439994182, 44.87936020206122]}}, {"type": "Feature", "properties": {"norad_id": 38199, "name": "COSMOS 2251 DEB", "group": "cosmos-2251-debris", "lat": 61.737543020030095, "lon": 87.97140932241767, "alt_km": 978.8651162803735, "timestamp": "2025-12-16T17:51:11.330498+00:00", "meta": {"OBJECT_NAME": "COSMOS 2251 DEB", "OBJECT_ID": "1993-036BSP", "EPOCH": "2025-12-15T20:26:01.047264", "MEAN_MOTION": 13.6479812, "ECCENTRICITY": 0.03697807, "INCLINATION": 73.9561, "RA_OF_ASC_NODE": 57.0764, "ARG_OF_PERICENTER": 342.9397, "MEAN_ANOMALY": 15.9546, "EPHEMERIS_TYPE": 0, "CLASSIFICATION_TYPE": "U", "NORAD_CAT_ID": 38199, "ELEMENT_SET_NO": 999, "REV_AT_EPOCH": 61064, "BSTAR": 0.00050452401, "MEAN_MOTION_DOT": 6.25e-06, "MEAN_MOTION_DDOT": 0}, "tle": {"line1": "1 38199U 93036BSP 25349.85140101  .00000625  00000+0  50452-3 0  9995", "line2": "2 38199  73.9561  57.0764 0369780 342.9397  15.9546 13.64798120610640"}}, "geometry": {"type": "Point", "coordinates": [87.97140932241767, 61.737543020030095]}}, {"type": "Feature", "properties": {"norad_id": 38208, "name": "COSMOS 2251 DEB", "group": "cosmos-2251-debris", "lat": 39.68758975726017, "lon": -122.80996056759965, "alt_km": 612.0108335862578, "timestamp": "2025-12-16T17:51:11.330508+00:00", "meta": {"OBJECT_NAME": "COSMOS 2251 DEB", "OBJECT_ID": "1993-036BSY", "EPOCH": "2025-12-15T05:46:42.754368", "MEAN_MOTION": 14.8400172, "ECCENTRICITY": 0.00017643, "INCLINATION": 74.0057, "RA_OF_ASC_NODE": 73.9438, "ARG_OF_PERICENTER": 154.1528, "MEAN_ANOMALY": 237.1904, "EPHEMERIS_TYPE": 0, "CLASSIFICATION_TYPE": "U", "NORAD_CAT_ID": 38208, "ELEMENT_SET_NO": 999, "REV_AT_EPOCH": 71196, "BSTAR": 0.0014297718, "MEAN_MOTION_DOT": 0.00011892, "MEAN_MOTION_DDOT": 0}, "tle": {"line1": "1 38208U 93036BSY 25349.24077262  .00011892  00000+0  14298-2 0  9991", "line2": "2 38208  74.0057  73.9438 0001764 154.1528 237.1904 14.84001720711961"}}, "geometry": {"type": "Point", "coordinates": [-122.80996056759965, 39.68758975726017]}}, {"type": "Feature", "properties": {"norad_id": 38212, "name": "COSMOS 2251 DEB", "group": "cosmos-2251-debris", "lat": -2.4314805319936297, "lon": 68.05373707847312, "alt_km": 686.672805412787, "timestamp": "2025-12-16T17:51:11.330519+00:00", "meta": {"OBJECT_NAME": "COSMOS 2251 DEB", "OBJECT_ID": "1993-036BTC", "EPOCH": "2025-12-13T23:14:48.711840", "MEAN_MOTION": 14.77697426, "ECCENTRICITY": 0.00923484, "INCLINATION": 74.0527, "RA_OF_ASC_NODE": 74.1891, "ARG_OF_PERICENTER": 140.8526, "MEAN_ANOMALY": 219.9379, "EPHEMERIS_TYPE": 0, "CLASSIFICATION_TYPE": "U", "NORAD_CAT_ID": 38212, "ELEMENT_SET_NO": 999, "REV_AT_EPOCH": 81328, "BSTAR": 0.00051158029, "MEAN_MOTION_DOT": 3.901e-05, "MEAN_MOTION_DDOT": 0}, "tle": {"line1": "1 38212U 93036BTC 25347.96861935  .00003901  00000+0  51158-3 0  9990", "line2": "2 38212  74.0527  74.1891 0092348 140.8526 219.9379 14.77697426813280"}}, "geometry": {"type": "Point", "coordinates": [68.05373707847312, -2.4314805319936297]}}, {"type": "Feature", "properties": {"norad_id": 38220, "name": "COSMOS 2251 DEB", "group": "cosmos-2251-debris", "lat": 7.888140867552023, "lon": 62.510721306696226, "alt_km": 586.6138075204599, "timestamp": "2025-12-16T17:51:11.330529+00:00", "meta": {"OBJECT_NAME": "COSMOS 2251 DEB", "OBJECT_ID": "1993-036BTL", "EPOCH": "2025-12-15T11:15:49.097664", "MEAN_MOTION": 14.93101324, "ECCENTRICITY": 0.00049703, "INCLINATION": 74.0151, "RA_OF_ASC_NODE": 62.7994, "ARG_OF_PERICENTER": 37.6366, "MEAN_ANOMALY": 322.5164, "EPHEMERIS_TYPE": 0, "CLASSIFICATION_TYPE": "U", "NORAD_CAT_ID": 38220, "ELEMENT_SET_NO": 999, "REV_AT_EPOCH": 71411, "BSTAR": 0.0017694768, "MEAN_MOTION_DOT": 0.00018461, "MEAN_MOTION_DDOT": 0}, "tle": {"line1": "1 38220U 93036BTL 25349.46931826  .00018461  00000+0  17695-2 0  9997", "line2": "2 38220  74.0151  62.7994 0004970  37.6366 322.5164 14.93101324714118"}}, "geometry": {"type": "Point", "coordinates": [62.510721306696226, 7.888140867552023]}}, {"type": "Feature", "properties": {"norad_id": 38479, "name": "COSMOS 2251 DEB", "group": "cosmos-2251-debris", "lat": 64.42233381142715, "lon": -146.2969578840611, "alt_km": 806.251566148122, "timestamp": "2025-12-16T17:51:11.330539+00:00", "meta": {"OBJECT_NAME": "COSMOS 2251 DEB", "OBJECT_ID": "1993-036BTP", "EPOCH": "2025-12-13T19:29:32.997408", "MEAN_MOTION": 14.3831318, "ECCENTRICITY": 0.0084157, "INCLINATION": 74.007, "RA_OF_ASC_NODE": 182.3013, "ARG_OF_PERICENTER": 291.0961, "MEAN_ANOMALY": 83.9532, "EPHEMERIS_TYPE": 0, "CLASSIFICATION_TYPE": "U", "NORAD_CAT_ID": 38479, "ELEMENT_SET_NO": 999, "REV_AT_EPOCH": 64703, "BSTAR": 0.0021939338, "MEAN_MOTION_DOT": 6.938e-05, "MEAN_MOTION_DDOT": 0}, "tle": {"line1": "1 38479U 93036BTP 25347.81218747  .00006938  00000+0  21939-2 0  9992", "line2": "2 38479  74.0070 182.3013 0084157 291.0961  83.9532 14.38313180647034"}}, "geometry": {"type": "Point", "coordinates": [-146.2969578840611, 64.42233381142715]}}, {"type": "Feature", "properties": {"norad_id": 38481, "name": "COSMOS 2251 DEB", "group": "cosmos-2251-debris", "lat": 63.83828132933002, "lon": 36.55740414576843, "alt_km": 1010.284118802816, "timestamp": "2025-12-16T17:51:11.330549+00:00", "meta": {"OBJECT_NAME": "COSMOS 2251 DEB", "OBJECT_ID": "1993-036BTR", "EPOCH": "2025-12-15T07:05:48.999264", "MEAN_MOTION": 13.94840538, "ECCENTRICITY": 0.02346938, "INCLINATION": 73.9334, "RA_OF_ASC_NODE": 3.139, "ARG_OF_PERICENTER": 302.9247, "MEAN_ANOMALY": 54.9502, "EPHEMERIS_TYPE": 0, "CLASSIFICATION_TYPE": "U", "NORAD_CAT_ID": 38481, "ELEMENT_SET_NO": 999, "REV_AT_EPOCH": 59096, "BSTAR": 0.0014478089, "MEAN_MOTION_DOT": 2.419e-05, "MEAN_MOTION_DDOT": 0}, "tle": {"line1": "1 38481U 93036BTR 25349.29570601  .00002419  00000+0  14478-2 0  9999", "line2": "2 38481  73.9334   3.1390 0234693 302.9247  54.9502 13.94840538590964"}}, "geometry": {"type": "Point", "coordinates": [36.55740414576843, 63.83828132933002]}}, {"type": "Feature", "properties": {"norad_id": 38483, "name": "COSMOS 2251 DEB", "group": "cosmos-2251-debris", "lat": -57.989360300948114, "lon": -22.230936548005324, "alt_km": 880.8134796051818, "timestamp": "2025-12-16T17:51:11.330559+00:00", "meta": {"OBJECT_NAME": "COSMOS 2251 DEB", "OBJECT_ID": "1993-036BTT", "EPOCH": "2025-12-12T08:16:48.530496", "MEAN_MOTION": 14.28787654, "ECCENTRICITY": 0.01107994, "INCLINATION": 74.262, "RA_OF_ASC_NODE": 12.4521, "ARG_OF_PERICENTER": 118.0167, "MEAN_ANOMALY": 243.2246, "EPHEMERIS_TYPE": 0, "CLASSIFICATION_TYPE": "U", "NORAD_CAT_ID": 38483, "ELEMENT_SET_NO": 999, "REV_AT_EPOCH": 63472, "BSTAR": 0.0012977102, "MEAN_MOTION_DOT": 3.471e-05, "MEAN_MOTION_DDOT": 0}, "tle": {"line1": "1 38483U 93036BTT 25346.34500614  .00003471  00000+0  12977-2 0  9992", "line2": "2 38483  74.2620  12.4521 0110799 118.0167 243.2246 14.28787654634722"}}, "geometry": {"type": "Point", "coordinates": [-22.230936548005324, -57.989360300948114]}}, {"type": "Feature", "properties": {"norad_id": 38486, "name": "COSMOS 2251 DEB", "group": "cosmos-2251-debris", "lat": -19.778125584067993, "lon": 22.954831931550267, "alt_km": 671.3479332745992, "timestamp": "2025-12-16T17:51:11.330570+00:00", "meta": {"OBJECT_NAME": "COSMOS 2251 DEB", "OBJECT_ID": "1993-036BTW", "EPOCH": "2025-12-14T08:43:16.817376", "MEAN_MOTION": 14.73317924, "ECCENTRICITY": 0.00302546, "INCLINATION": 73.9417, "RA_OF_ASC_NODE": 201.6743, "ARG_OF_PERICENTER": 345.7172, "MEAN_ANOMALY": 193.9267, "EPHEMERIS_TYPE": 0, "CLASSIFICATION_TYPE": "U", "NORAD_CAT_ID": 38486, "ELEMENT_SET_NO": 999, "REV_AT_EPOCH": 75458, "BSTAR": 0.0022812423, "MEAN_MOTION_DOT": 0.00014869, "MEAN_MOTION_DDOT": 0}, "tle": {"line1": "1 38486U 93036BTW 25348.36338909  .00014869  00000+0  22812-2 0  9997", "line2": "2 38486  73.9417 201.6743 0030254 345.7172 193.9267 14.73317924754585"}}, "geometry": {"type": "Point", "coordinates": [22.954831931550267, -19.778125584067993]}}, {"type": "Feature", "properties": {"norad_id": 38487, "name": "COSMOS 2251 DEB", "group": "cosmos-2251-debris", "lat": -67.71397307193138, "lon": -110.0416301914491, "alt_km": 511.9563046395142, "timestamp": "2025-12-16T17:51:11.330580+00:00", "meta": {"OBJECT_NAME": "COSMOS 2251 DEB", "OBJECT_ID": "1993-036BTX", "EPOCH": "2025-12-15T09:05:37.644288", "MEAN_MOTION": 15.17550331, "ECCENTRICITY": 0.00212693, "INCLINATION": 73.9757, "RA_OF_ASC_NODE": 28.2906, "ARG_OF_PERICENTER": 200.4312, "MEAN_ANOMALY": 159.6036, "EPHEMERIS_TYPE": 0, "CLASSIFICATION_TYPE": "U", "NORAD_CAT_ID": 38487, "ELEMENT_SET_NO": 999, "REV_AT_EPOCH": 66840, "BSTAR": 0.0011624487, "MEAN_MOTION_DOT": 0.00023508, "MEAN_MOTION_DDOT": 0}, "tle": {"line1": "1 38487U 93036BTX 25349.37890792  .00023508  00000+0  11624-2 0  9992", "line2": "2 38487  73.9757  28.2906 0021269 200.4312 159.6036 15.17550331668404"}}, "geometry": {"type": "Point", "coordinates": [-110.0416301914491, -67.71397307193138]}}]}